STARLINK-2481           
1 48138U 21027AY  26060.42923183  .00000728  00000+0  37544-4 0  9995
2 48138  53.1554 206.1583 0001242  88.4885 271.6258 15.29356998271215
STARLINK-2482           
1 48139U 21027AZ  26060.34661321  .00002963  00000+0  21773-3 0  9999
2 48139  53.0549 189.0718 0001716  95.9035 264.2149 15.06399217271442
STARLINK-2483           
1 48140U 21027BA  26060.43340810  .00000081  00000+0  14869-4 0  9996
2 48140  53.1591 204.0032 0001193  83.4265 276.6872 15.30193078271247
STARLINK-2485           
1 48142U 21027BC  26060.34289549 -.00022458  00000+0 -14892-2 0  9997
2 48142  53.0559 189.0873 0002028  79.7067 280.4150 15.06506139271446
STARLINK-2486           
1 48143U 21027BD  26060.48426000  .00002825  00000+0  10748-3 0  9999
2 48143  53.1613 139.1498 0001448  89.6356 270.4810 15.30198433272156
STARLINK-2487           
1 48144U 21027BE  26060.35030078  .00002476  00000+0  18507-3 0  9995
2 48144  53.0569 189.0557 0001183  87.8329 272.2795 15.06401586271433
STARLINK-2488           
1 48145U 21027BF  26060.50003471  .00342139  00000+0  12316-2 0  9994
2 48145  53.0417 149.8031 0001637  49.7005  53.6591 15.87273129  5955
STARLINK-2491           
1 48148U 21027BJ  26060.41863821  .00000219  00000+0  19523-4 0  9999
2 48148  53.1615 203.8498 0001108  94.5524 265.5603 15.30183570271236
STARLINK-2492           
1 48149U 21027BK  26060.39822144  .00007672  00000+0  53332-3 0  9995
2 48149  53.0547 188.8397 0001249  86.4205 273.6927 15.06401299271448
STARLINK-2493           
1 48150U 21027BL  26060.40190181  .00000166  00000+0  30058-4 0  9990
2 48150  53.0570 188.8255 0001429  94.3804 265.7349 15.06406565271454
STARLINK-2503           
1 48151U 21027BM  26060.40559152  .00000696  00000+0  65603-4 0  9990
2 48151  53.0557 188.8079 0001165  85.7679 274.3443 15.06400641271455
STARLINK-2567           
1 48276U 21036A   26060.44661585 -.00000293  00000+0 -76655-6 0  9992
2 48276  53.0552  83.6240 0001454  88.1589 271.9566 15.06393405267563
STARLINK-2569           
1 48277U 21036B   26060.50003471  .01495582  00000+0  81049-1 0  9990
2 48277  53.0718  48.3483 0001070 103.7141 198.9256 15.10809857  5817
STARLINK-2543           
1 48278U 21036C   26060.50003471  .00038477  00000+0  13394-2 0  9995
2 48278  53.1545  62.4215 0001640  77.8557 220.9336 15.29340692  5825
STARLINK-2565           
1 48280U 21036E   26060.47147537  .00000355  00000+0  42721-4 0  9998
2 48280  53.0555 133.5139 0001545  86.2482 273.8684 15.06403629266869
STARLINK-2558           
1 48282U 21036G   26060.46838359  .00002416  00000+0  93656-4 0  9991
2 48282  53.1613 113.5646 0001367  82.7562 277.3595 15.30200957267159
STARLINK-2516           
1 48283U 21036H   26060.46417050  .00002928  00000+0  11091-3 0  9993
2 48283  53.1602 113.5776 0001362  85.5682 274.5474 15.30204832267152
