[{"OBJECT_NAME":"STARLINK-2481","OBJECT_ID":"2021-027AY","EPOCH":"2026-03-01T10:18:05.630112","MEAN_MOTION":15.29356998,"ECCENTRICITY":0.0001242,"INCLINATION":53.1554,"RA_OF_ASC_NODE":206.1583,"ARG_OF_PERICENTER":88.4885,"MEAN_ANOMALY":271.6258,"EPHEMERIS_TYPE":0,"CLASSIFICATION_TYPE":"U","NORAD_CAT_ID":48138,"ELEMENT_SET_NO":999,"REV_AT_EPOCH":27121,"BSTAR":3.7544e-5,"MEAN_MOTION_DOT":7.28e-6,"MEAN_MOTION_DDOT":0},{"OBJECT_NAME":"STARLINK-2482","OBJECT_ID":"2021-027AZ","EPOCH":"2026-03-01T08:19:07.381344","MEAN_MOTION":15.06399217,"ECCENTRICITY":0.0001716,"INCLINATION":53.0549,"RA_OF_ASC_NODE":189.0718,"ARG_OF_PERICENTER":95.9035,"MEAN_ANOMALY":264.2149,"EPHEMERIS_TYPE":0,"CLASSIFICATION_TYPE":"U","NORAD_CAT_ID":48139,"ELEMENT_SET_NO":999,"REV_AT_EPOCH":27144,"BSTAR":0.00021773,"MEAN_MOTION_DOT":2.963e-5,"MEAN_MOTION_DDOT":0},{"OBJECT_NAME":"STARLINK-2483","OBJECT_ID":"2021-027BA","EPOCH":"2026-03-01T10:24:06.459840","MEAN_MOTION":15.30193078,"ECCENTRICITY":0.0001193,"INCLINATION":53.1591,"RA_OF_ASC_NODE":204.0032,"ARG_OF_PERICENTER":83.4265,"MEAN_ANOMALY":276.6872,"EPHEMERIS_TYPE":0,"CLASSIFICATION_TYPE":"U","NORAD_CAT_ID":48140,"ELEMENT_SET_NO":999,"REV_AT_EPOCH":27124,"BSTAR":1.4869e-5,"MEAN_MOTION_DOT":8.1e-7,"MEAN_MOTION_DDOT":0},{"OBJECT_NAME":"STARLINK-2485","OBJECT_ID":"2021-027BC","EPOCH":"2026-03-01T08:13:46.170336","MEAN_MOTION":15.06506139,"ECCENTRICITY":0.0002028,"INCLINATION":53.0559,"RA_OF_ASC_NODE":189.0873,"ARG_OF_PERICENTER":79.7067,"MEAN_ANOMALY":280.415,"EPHEMERIS_TYPE":0,"CLASSIFICATION_TYPE":"U","NORAD_CAT_ID":48142,"ELEMENT_SET_NO":999,"REV_AT_EPOCH":27144,"BSTAR":-0.0014892,"MEAN_MOTION_DOT":-0.00022458,"MEAN_MOTION_DDOT":0},{"OBJECT_NAME":"STARLINK-2486","OBJECT_ID":"2021-027BD","EPOCH":"2026-03-01T11:37:20.064000","MEAN_MOTION":15.30198433,"ECCENTRICITY":0.0001448,"INCLINATION":53.1613,"RA_OF_ASC_NODE":139.1498,"ARG_OF_PERICENTER":89.6356,"MEAN_ANOMALY":270.481,"EPHEMERIS_TYPE":0,"CLASSIFICATION_TYPE":"U","NORAD_CAT_ID":48143,"ELEMENT_SET_NO":999,"REV_AT_EPOCH":27215,"BSTAR":0.00010748,"MEAN_MOTION_DOT":2.825e-5,"MEAN_MOTION_DDOT":0},{"OBJECT_NAME":"STARLINK-2487","OBJECT_ID":"2021-027BE","EPOCH":"2026-03-01T08:24:25.987392","MEAN_MOTION":15.06401586,"ECCENTRICITY":0.0001183,"INCLINATION":53.0569,"RA_OF_ASC_NODE":189.0557,"ARG_OF_PERICENTER":87.8329,"MEAN_ANOMALY":272.2795,"EPHEMERIS_TYPE":0,"CLASSIFICATION_TYPE":"U","NORAD_CAT_ID":48144,"ELEMENT_SET_NO":999,"REV_AT_EPOCH":27143,"BSTAR":0.00018507,"MEAN_MOTION_DOT":2.476e-5,"MEAN_MOTION_DDOT":0},{"OBJECT_NAME":"STARLINK-2488","OBJECT_ID":"2021-027BF","EPOCH":"2026-03-01T12:00:02.998944","MEAN_MOTION":15.87273129,"ECCENTRICITY":0.0001637,"INCLINATION":53.0417,"RA_OF_ASC_NODE":149.8031,"ARG_OF_PERICENTER":49.7005,"MEAN_ANOMALY":53.6591,"EPHEMERIS_TYPE":0,"CLASSIFICATION_TYPE":"U","NORAD_CAT_ID":48145,"ELEMENT_SET_NO":999,"REV_AT_EPOCH":595,"BSTAR":0.0012316,"MEAN_MOTION_DOT":0.00342139,"MEAN_MOTION_DDOT":0},{"OBJECT_NAME":"STARLINK-2491","OBJECT_ID":"2021-027BJ","EPOCH":"2026-03-01T10:02:50.341344","MEAN_MOTION":15.3018357,"ECCENTRICITY":0.0001108,"INCLINATION":53.1615,"RA_OF_ASC_NODE":203.8498,"ARG_OF_PERICENTER":94.5524,"MEAN_ANOMALY":265.5603,"EPHEMERIS_TYPE":0,"CLASSIFICATION_TYPE":"U","NORAD_CAT_ID":48148,"ELEMENT_SET_NO":999,"REV_AT_EPOCH":27123,"BSTAR":1.9523e-5,"MEAN_MOTION_DOT":2.19e-6,"MEAN_MOTION_DDOT":0},{"OBJECT_NAME":"STARLINK-2492","OBJECT_ID":"2021-027BK","EPOCH":"2026-03-01T09:33:26.332416","MEAN_MOTION":15.06401299,"ECCENTRICITY":0.0001249,"INCLINATION":53.0547,"RA_OF_ASC_NODE":188.8397,"ARG_OF_PERICENTER":86.4205,"MEAN_ANOMALY":273.6927,"EPHEMERIS_TYPE":0,"CLASSIFICATION_TYPE":"U","NORAD_CAT_ID":48149,"ELEMENT_SET_NO":999,"REV_AT_EPOCH":27144,"BSTAR":0.00053332,"MEAN_MOTION_DOT":7.672e-5,"MEAN_MOTION_DDOT":0},{"OBJECT_NAME":"STARLINK-2493","OBJECT_ID":"2021-027BL","EPOCH":"2026-03-01T09:38:44.316384","MEAN_MOTION":15.06406565,"ECCENTRICITY":0.0001429,"INCLINATION":53.057,"RA_OF_ASC_NODE":188.8255,"ARG_OF_PERICENTER":94.3804,"MEAN_ANOMALY":265.7349,"EPHEMERIS_TYPE":0,"CLASSIFICATION_TYPE":"U","NORAD_CAT_ID":48150,"ELEMENT_SET_NO":999,"REV_AT_EPOCH":27145,"BSTAR":3.0058e-5,"MEAN_MOTION_DOT":1.66e-6,"MEAN_MOTION_DDOT":0},{"OBJECT_NAME":"STARLINK-2503","OBJECT_ID":"2021-027BM","EPOCH":"2026-03-01T09:44:03.107328","MEAN_MOTION":15.06400641,"ECCENTRICITY":0.0001165,"INCLINATION":53.0557,"RA_OF_ASC_NODE":188.8079,"ARG_OF_PERICENTER":85.7679,"MEAN_ANOMALY":274.3443,"EPHEMERIS_TYPE":0,"CLASSIFICATION_TYPE":"U","NORAD_CAT_ID":48151,"ELEMENT_SET_NO":999,"REV_AT_EPOCH":27145,"BSTAR":6.5603e-5,"MEAN_MOTION_DOT":6.96e-6,"MEAN_MOTION_DDOT":0},{"OBJECT_NAME":"STARLINK-2567","OBJECT_ID":"2021-036A","EPOCH":"2026-03-01T10:43:07.609440","MEAN_MOTION":15.06393405,"ECCENTRICITY":0.0001454,"INCLINATION":53.0552,"RA_OF_ASC_NODE":83.624,"ARG_OF_PERICENTER":88.1589,"MEAN_ANOMALY":271.9566,"EPHEMERIS_TYPE":0,"CLASSIFICATION_TYPE":"U","NORAD_CAT_ID":48276,"ELEMENT_SET_NO":999,"REV_AT_EPOCH":26756,"BSTAR":-7.6655e-7,"MEAN_MOTION_DOT":-2.93e-6,"MEAN_MOTION_DDOT":0},{"OBJECT_NAME":"STARLINK-2569","OBJECT_ID":"2021-036B","EPOCH":"2026-03-01T12:00:02.998944","MEAN_MOTION":15.10809857,"ECCENTRICITY":0.000107,"INCLINATION":53.0718,"RA_OF_ASC_NODE":48.3483,"ARG_OF_PERICENTER":103.7141,"MEAN_ANOMALY":198.9256,"EPHEMERIS_TYPE":0,"CLASSIFICATION_TYPE":"U","NORAD_CAT_ID":48277,"ELEMENT_SET_NO":999,"REV_AT_EPOCH":581,"BSTAR":0.081049,"MEAN_MOTION_DOT":0.01495582,"MEAN_MOTION_DDOT":0},{"OBJECT_NAME":"STARLINK-2543","OBJECT_ID":"2021-036C","EPOCH":"2026-03-01T12:00:02.998944","MEAN_MOTION":15.29340692,"ECCENTRICITY":0.000164,"INCLINATION":53.1545,"RA_OF_ASC_NODE":62.4215,"ARG_OF_PERICENTER":77.8557,"MEAN_ANOMALY":220.9336,"EPHEMERIS_TYPE":0,"CLASSIFICATION_TYPE":"U","NORAD_CAT_ID":48278,"ELEMENT_SET_NO":999,"REV_AT_EPOCH":582,"BSTAR":0.0013394,"MEAN_MOTION_DOT":0.00038477,"MEAN_MOTION_DDOT":0},{"OBJECT_NAME":"STARLINK-2565","OBJECT_ID":"2021-036E","EPOCH":"2026-03-01T11:18:55.471968","MEAN_MOTION":15.06403629,"ECCENTRICITY":0.0001545,"INCLINATION":53.0555,"RA_OF_ASC_NODE":133.5139,"ARG_OF_PERICENTER":86.2482,"MEAN_ANOMALY":273.8684,"EPHEMERIS_TYPE":0,"CLASSIFICATION_TYPE":"U","NORAD_CAT_ID":48280,"ELEMENT_SET_NO":999,"REV_AT_EPOCH":26686,"BSTAR":4.2721e-5,"MEAN_MOTION_DOT":3.55e-6,"MEAN_MOTION_DDOT":0},{"OBJECT_NAME":"STARLINK-2558","OBJECT_ID":"2021-036G","EPOCH":"2026-03-01T11:14:28.342176","MEAN_MOTION":15.30200957,"ECCENTRICITY":0.0001367,"INCLINATION":53.1613,"RA_OF_ASC_NODE":113.5646,"ARG_OF_PERICENTER":82.7562,"MEAN_ANOMALY":277.3595,"EPHEMERIS_TYPE":0,"CLASSIFICATION_TYPE":"U","NORAD_CAT_ID":48282,"ELEMENT_SET_NO":999,"REV_AT_EPOCH":26715,"BSTAR":9.3656e-5,"MEAN_MOTION_DOT":2.416e-5,"MEAN_MOTION_DDOT":0},{"OBJECT_NAME":"STARLINK-2516","OBJECT_ID":"2021-036H","EPOCH":"2026-03-01T11:08:24.331200","MEAN_MOTION":15.30204832,"ECCENTRICITY":0.0001362,"INCLINATION":53.1602,"RA_OF_ASC_NODE":113.5776,"ARG_OF_PERICENTER":85.5682,"MEAN_ANOMALY":274.5474,"EPHEMERIS_TYPE":0,"CLASSIFICATION_TYPE":"U","NORAD_CAT_ID":48283,"ELEMENT_SET_NO":999,"REV_AT_EPOCH":26715,"BSTAR":0.00011091,"MEAN_MOTION_DOT":2.928e-5,"MEAN_MOTION_DDOT":0}]
